0 CZ-4 DEB
1 20887U 90081AX  13280.81612441  .00000995  00000-0  38286-3 0  9807
2 20887 098.5425 300.6294 0023465 342.5533 069.8071 14.32418316193398
0 CZ-4 DEB
1 20887U 90081AX  13283.05225688  .00001121  00000-0  42899-3 0  9817
2 20887 098.5422 302.8327 0023387 335.6135 081.2346 14.32426423193717
0 CZ-4 DEB
1 20887U 90081AX  13285.30156068  .00001128  00000-0  43161-3 0  9823
2 20887 098.5418 305.0492 0023313 328.5972 160.6851 14.32432054194035
0 CZ-4 DEB
1 20887U 90081AX  13287.54147560  .00001305  00000-0  49673-3 0  9830
2 20887 098.5413 307.2562 0023297 321.5596 191.8105 14.32437782194354
0 CZ-4 DEB
1 20887U 90081AX  13289.82728940  .00001468  00000-0  55678-3 0  9843
2 20887 098.5410 309.5083 0023269 314.4872 099.5883 14.32447125194686
0 CZ-4 DEB
1 20887U 90081AX  13291.93857796  .00001508  00000-0  57154-3 0  9857
2 20887 098.5410 311.5882 0023276 307.9148 187.4511 14.32452140194988
0 CZ-4 DEB
1 20887U 90081AX  13294.01789515  .00001566  00000-0  59261-3 0  9868
2 20887 098.5411 313.6365 0023318 301.4694 110.4509 14.32458964195287
